{
  "type": "FeatureCollection",
  "features": [
    {
      "type": "Feature",
      "properties": {
        "norad_id": 42988,
        "name": "SKYSAT-C10",
        "group": "resource",
        "lat": -74.92618675561526,
        "lon": -92.90901802883847,
        "alt_km": 480.29112117670775,
        "timestamp": "2025-12-11T05:00:25.968590+00:00",
        "meta_object_name": "SKYSAT-C10",
        "meta_object_id": "2017-068B",
        "meta_epoch": "2025-12-10T09:04:43.296096",
        "meta_mean_motion": 15.31981221,
        "meta_eccentricity": 0.00053198,
        "meta_inclination": 97.4258,
        "meta_ra_of_asc_node": 115.2229,
        "meta_arg_of_pericenter": 110.4799,
        "meta_mean_anomaly": 249.7014,
        "meta_ephemeris_type": 0,
        "meta_classification_type": "U",
        "meta_norad_cat_id": 42988,
        "meta_element_set_no": 999,
        "meta_rev_at_epoch": 45343,
        "meta_bstar": 0.00054588181,
        "meta_mean_motion_dot": 0.00016803,
        "meta_mean_motion_ddot": 0,
        "tle_line1": "1 42988U 17068B   25344.37827889  .00016803  00000+0  54588-3 0  9993",
        "tle_line2": "2 42988  97.4258 115.2229 0005319 110.4799 249.7014 15.31981221453438"
      },
      "geometry": {
        "type": "Point",
        "coordinates": [
          -92.90901802883847,
          -74.92618675561526
        ]
      }
    },
    {
      "type": "Feature",
      "properties": {
        "norad_id": 42989,
        "name": "SKYSAT-C9",
        "group": "resource",
        "lat": 79.36705026517373,
        "lon": 71.49854457413062,
        "alt_km": 443.4861014837152,
        "timestamp": "2025-12-11T05:00:25.968600+00:00",
        "meta_object_name": "SKYSAT-C9",
        "meta_object_id": "2017-068C",
        "meta_epoch": "2025-12-10T19:16:09.008256",
        "meta_mean_motion": 15.35967716,
        "meta_eccentricity": 0.00106484,
        "meta_inclination": 97.4187,
        "meta_ra_of_asc_node": 115.0414,
        "meta_arg_of_pericenter": 93.9134,
        "meta_mean_anomaly": 266.3328,
        "meta_ephemeris_type": 0,
        "meta_classification_type": "U",
        "meta_norad_cat_id": 42989,
        "meta_element_set_no": 999,
        "meta_rev_at_epoch": 45378,
        "meta_bstar": 0.00053471643,
        "meta_mean_motion_dot": 0.00018699,
        "meta_mean_motion_ddot": 0,
        "tle_line1": "1 42989U 17068C   25344.80288204  .00018699  00000+0  53472-3 0  9990",
        "tle_line2": "2 42989  97.4187 115.0414 0010648  93.9134 266.3328 15.35967716453781"
      },
      "geometry": {
        "type": "Point",
        "coordinates": [
          71.49854457413062,
          79.36705026517373
        ]
      }
    },
    {
      "type": "Feature",
      "properties": {
        "norad_id": 42990,
        "name": "SKYSAT-C8",
        "group": "resource",
        "lat": 69.10214209909441,
        "lon": 95.22185927221555,
        "alt_km": 460.2739422944496,
        "timestamp": "2025-12-11T05:00:25.968611+00:00",
        "meta_object_name": "SKYSAT-C8",
        "meta_object_id": "2017-068D",
        "meta_epoch": "2025-12-10T19:18:03.305952",
        "meta_mean_motion": 15.32847399,
        "meta_eccentricity": 0.00017089,
        "meta_inclination": 97.4281,
        "meta_ra_of_asc_node": 114.7963,
        "meta_arg_of_pericenter": 358.0878,
        "meta_mean_anomaly": 2.0357,
        "meta_ephemeris_type": 0,
        "meta_classification_type": "U",
        "meta_norad_cat_id": 42990,
        "meta_element_set_no": 999,
        "meta_rev_at_epoch": 45341,
        "meta_bstar": 0.00049353797,
        "meta_mean_motion_dot": 0.00015593,
        "meta_mean_motion_ddot": 0,
        "tle_line1": "1 42990U 17068D   25344.80420493  .00015593  00000+0  49354-3 0  9994",
        "tle_line2": "2 42990  97.4281 114.7963 0001708 358.0878   2.0357 15.32847399453418"
      },
      "geometry": {
        "type": "Point",
        "coordinates": [
          95.22185927221555,
          69.10214209909441
        ]
      }
    },
    {
      "type": "Feature",
      "properties": {
        "norad_id": 42991,
        "name": "SKYSAT-C7",
        "group": "resource",
        "lat": -69.62419227914505,
        "lon": 136.81138271800663,
        "alt_km": 479.9032764551748,
        "timestamp": "2025-12-11T05:00:25.968621+00:00",
        "meta_object_name": "SKYSAT-C7",
        "meta_object_id": "2017-068E",
        "meta_epoch": "2025-12-10T15:12:38.511648",
        "meta_mean_motion": 15.32250741,
        "meta_eccentricity": 0.0007735,
        "meta_inclination": 97.4287,
        "meta_ra_of_asc_node": 115.6678,
        "meta_arg_of_pericenter": 63.4105,
        "meta_mean_anomaly": 296.7929,
        "meta_ephemeris_type": 0,
        "meta_classification_type": "U",
        "meta_norad_cat_id": 42991,
        "meta_element_set_no": 999,
        "meta_rev_at_epoch": 45345,
        "meta_bstar": 0.00055138,
        "meta_mean_motion_dot": 0.00017125,
        "meta_mean_motion_ddot": 0,
        "tle_line1": "1 42991U 17068E   25344.63377907  .00017125  00000+0  55138-3 0  9997",
        "tle_line2": "2 42991  97.4287 115.6678 0007735  63.4105 296.7929 15.32250741453454"
      },
      "geometry": {
        "type": "Point",
        "coordinates": [
          136.81138271800663,
          -69.62419227914505
        ]
      }
    },
    {
      "type": "Feature",
      "properties": {
        "norad_id": 42992,
        "name": "SKYSAT-C6",
        "group": "resource",
        "lat": 49.96912953470866,
        "lon": 107.74438069125517,
        "alt_km": 464.12664319710984,
        "timestamp": "2025-12-11T05:00:25.968631+00:00",
        "meta_object_name": "SKYSAT-C6",
        "meta_object_id": "2017-068F",
        "meta_epoch": "2025-12-10T19:22:41.837088",
        "meta_mean_motion": 15.3142184,
        "meta_eccentricity": 0.00052036,
        "meta_inclination": 97.432,
        "meta_ra_of_asc_node": 116.2821,
        "meta_arg_of_pericenter": 87.635,
        "meta_mean_anomaly": 272.5487,
        "meta_ephemeris_type": 0,
        "meta_classification_type": "U",
        "meta_norad_cat_id": 42992,
        "meta_element_set_no": 999,
        "meta_rev_at_epoch": 45346,
        "meta_bstar": 0.00052032995,
        "meta_mean_motion_dot": 0.00015733,
        "meta_mean_motion_ddot": 0,
        "tle_line1": "1 42992U 17068F   25344.80742867  .00015733  00000+0  52033-3 0  9992",
        "tle_line2": "2 42992  97.4320 116.2821 0005203  87.6350 272.5487 15.31421840453469"
      },
      "geometry": {
        "type": "Point",
        "coordinates": [
          107.74438069125517,
          49.96912953470866
        ]
      }
    },
    {
      "type": "Feature",
      "properties": {
        "norad_id": 43111,
        "name": "CARTOSAT-2F",
        "group": "resource",
        "lat": -43.85060700531803,
        "lon": -144.3323139959823,
        "alt_km": 514.7861702640648,
        "timestamp": "2025-12-11T05:00:25.968641+00:00",
        "meta_object_name": "CARTOSAT-2F",
        "meta_object_id": "2018-004A",
        "meta_epoch": "2025-12-10T21:42:01.082016",
        "meta_mean_motion": 15.19242101,
        "meta_eccentricity": 8.514e-05,
        "meta_inclination": 97.4313,
        "meta_ra_of_asc_node": 42.5714,
        "meta_arg_of_pericenter": 142.3339,
        "meta_mean_anomaly": 217.7955,
        "meta_ephemeris_type": 0,
        "meta_classification_type": "U",
        "meta_norad_cat_id": 43111,
        "meta_element_set_no": 999,
        "meta_rev_at_epoch": 43874,
        "meta_bstar": 0.00033712796,
        "meta_mean_motion_dot": 7.038e-05,
        "meta_mean_motion_ddot": 0,
        "tle_line1": "1 43111U 18004A   25344.90417919  .00007038  00000+0  33713-3 0  9998",
        "tle_line2": "2 43111  97.4313  42.5714 0000851 142.3339 217.7955 15.19242101438749"
      },
      "geometry": {
        "type": "Point",
        "coordinates": [
          -144.3323139959823,
          -43.85060700531803
        ]
      }
    },
    {
      "type": "Feature",
      "properties": {
        "norad_id": 43259,
        "name": "GAOFEN-1 02",
        "group": "resource",
        "lat": -45.73057360657379,
        "lon": -145.38291543034077,
        "alt_km": 646.2099040911271,
        "timestamp": "2025-12-11T05:00:25.968651+00:00",
        "meta_object_name": "GAOFEN-1 02",
        "meta_object_id": "2018-031A",
        "meta_epoch": "2025-12-10T23:06:22.204800",
        "meta_mean_motion": 14.76472631,
        "meta_eccentricity": 0.00014943,
        "meta_inclination": 98.0804,
        "meta_ra_of_asc_node": 42.7511,
        "meta_arg_of_pericenter": 217.0929,
        "meta_mean_anomaly": 143.0177,
        "meta_ephemeris_type": 0,
        "meta_classification_type": "U",
        "meta_norad_cat_id": 43259,
        "meta_element_set_no": 999,
        "meta_rev_at_epoch": 41492,
        "meta_bstar": 0.00014943069,
        "meta_mean_motion_dot": 9.88e-06,
        "meta_mean_motion_ddot": 0,
        "tle_line1": "1 43259U 18031A   25344.96275700  .00000988  00000+0  14943-3 0  9998",
        "tle_line2": "2 43259  98.0804  42.7511 0001494 217.0929 143.0177 14.76472631414926"
      },
      "geometry": {
        "type": "Point",
        "coordinates": [
          -145.38291543034077,
          -45.73057360657379
        ]
      }
    }
  ]
}